{
  "norad_id": 43609,
  "name": "HAIYANG-1C",
  "history": [
    {
      "epoch": "2026-03-28T22:38:13.795008",
      "apogee_km": 785.2641342591442,
      "perigee_km": 770.5064126450479,
      "latitude_deg": 84.91922480064477,
      "longitude_deg": 71.44866111990996,
      "semi_major_axis_km": 7156.022273452096,
      "eccentricity": 0.00103114,
      "inclination_deg": 98.5241,
      "raan_deg": 161.3948,
      "arg_perigee_deg": 338.7942,
      "mean_anomaly_deg": 21.2814,
      "mean_motion_rev_day": 14.34152177
    },
    {
      "epoch": "2026-03-29T03:39:37.516320",
      "apogee_km": 785.2457678310429,
      "perigee_km": 770.5229694671843,
      "latitude_deg": -82.33978050147539,
      "longitude_deg": 91.54168479982764,
      "semi_major_axis_km": 7156.021368649113,
      "eccentricity": 0.0010287,
      "inclination_deg": 98.5241,
      "raan_deg": 161.6013,
      "arg_perigee_deg": 338.0724,
      "mean_anomaly_deg": 22.0019,
      "mean_motion_rev_day": 14.34152449
    }
  ]
}